<?xml version="1.0" encoding="UTF-8"?>
<kml xmlns="http://earth.google.com/kml/2.1"
  xmlns:xsi="http://www.w3.org/2001/XMLSchema-instance"
  xsi:schemaLocation="http://earth.google.com/kml/2.1
    http://code.google.com/apis/kml/schema/kml21.xsd">
  <Folder>
    <name>MBARI Network Links</name>
    <visibility>0</visibility>
    <open>0</open>
    <description>The links in this folder allow dynamic geospatial-temporal browsing of MBARI databases</description>
    <NetworkLink>
      <name>View MBARI ROV dives from Expedition Database</name>
      <visibility>0</visibility>
      <open>0</open>
      <description>This view-based refresh performs a dynamic query from the Expedition Database returning placemarks for dives in view.  
      The view will begin to be refreshed 2 second after you stop navigating.</description>
      <refreshVisibility>0</refreshVisibility>
      <flyToView>0</flyToView>
      <Link>
        <href>https://mww.mbari.org/expd/queries/diveKML.asp</href>
        <refreshInterval>2</refreshInterval>
        <viewRefreshMode>onStop</viewRefreshMode>
        <viewRefreshTime>1</viewRefreshTime>
      </Link>
    </NetworkLink>
  </Folder>
</kml>